NORAD_CAT_ID,OBJECT_NAME,OBJECT_TYPE,EPOCH,MEAN_MOTION,ECCENTRICITY,INCLINATION,RA_OF_ASC_NODE,ARG_OF_PERICENTER,MEAN_ANOMALY,BSTAR,MEAN_MOTION_DOT,MEAN_MOTION_DDOT,TLE_LINE0,TLE_LINE1,TLE_LINE2,SEMIMAJOR_AXIS,PERIOD,APOGEE,PERIGEE,DECAYED
53992.0,STARLINK-5108,PAYLOAD,2023-07-07 10:48:48,15.08842203,0.0001054,53.2177,276.6248,88.4407,271.6706,9.9381e-05,1.294e-05,0.0,0 STARLINK-5108,1 53992U 22125AE  23188.45056701  .00001294  00000-0  99381-4 0  9990,2 53992  53.2177 276.6248 0001054  88.4407 271.6706 15.08842203 42155,6917.874,95.437,540.468,539.01,0.0
53992.0,STARLINK-5108,PAYLOAD,2023-07-08 15:25:45,15.08847905,0.0001176,53.2181,271.2712,112.5104,247.6012,-5.6599e-05,-1.189e-05,0.0,0 STARLINK-5108,1 53992U 22125AE  23189.64288519 -.00001189  00000-0 -56599-4 0  9995,2 53992  53.2181 271.2712 0001176 112.5104 247.6012 15.08847905 42332,6917.856,95.437,540.535,538.908,0.0
53992.0,STARLINK-5108,PAYLOAD,2023-07-09 12:05:46,15.0883502,0.0001022,53.2178,267.4054,89.5747,270.5362,-1.8263e-05,-5.78e-06,0.0,0 STARLINK-5108,1 53992U 22125AE  23190.50401432 -.00000578  00000-0 -18263-4 0  9990,2 53992  53.2178 267.4054 0001022  89.5747 270.5362 15.08835020 42462,6917.896,95.438,540.468,539.054,0.0
53992.0,STARLINK-5108,PAYLOAD,2023-07-10 13:31:56,15.0884332,9.82e-05,53.2169,262.6505,94.7439,265.3666,9.5086e-05,1.226e-05,0.0,0 STARLINK-5108,1 53992U 22125AE  23191.56384796  .00001226  00000-0  95086-4 0  9997,2 53992  53.2169 262.6505 0000982  94.7439 265.3666 15.08843320 42629,6917.87,95.437,540.415,539.056,0.0
53992.0,STARLINK-5108,PAYLOAD,2023-07-10 21:28:52,15.08837885,9.54e-05,53.2171,261.1633,89.3019,270.8082,2.3721e-05,9e-07,0.0,0 STARLINK-5108,1 53992U 22125AE  23191.89505370  .00000090  00000-0  23721-4 0  9991,2 53992  53.2171 261.1633 0000954  89.3019 270.8082 15.08837885 42678,6917.887,95.438,540.412,539.092,0.0
53992.0,STARLINK-5108,PAYLOAD,2023-07-12 05:16:35,15.08840478,0.0001047,53.2171,255.2167,88.1578,271.9534,4.1732e-05,3.76e-06,0.0,0 STARLINK-5108,1 53992U 22125AE  23193.21985559  .00000376  00000-0  41732-4 0  9999,2 53992  53.2171 255.2167 0001047  88.1578 271.9534 15.08840478 42873,6917.879,95.438,540.468,539.02,0.0
53992.0,STARLINK-5108,PAYLOAD,2023-07-13 11:28:55,15.0883491,0.0001174,53.2173,249.5661,75.406,284.7062,-2.6785e-06,-3.3e-06,0.0,0 STARLINK-5108,1 53992U 22125AE  23194.47842245 -.00000330  00000-0 -26785-5 0  9996,2 53992  53.2173 249.5661 0001174  75.4060 284.7062 15.08834910 43060,6917.896,95.438,540.573,538.949,0.0
53992.0,STARLINK-5108,PAYLOAD,2023-07-14 09:44:18,15.08845144,0.0001162,53.217,245.4031,74.6139,285.4981,7.4068e-05,8.91e-06,0.0,0 STARLINK-5108,1 53992U 22125AE  23195.40577443  .00000891  00000-0  74068-4 0  9991,2 53992  53.2170 245.4031 0001162  74.6139 285.4981 15.08845144 43203,6917.865,95.437,540.534,538.926,0.0
53992.0,STARLINK-5108,PAYLOAD,2023-07-16 03:04:21,15.08836413,0.0001287,53.2164,237.6731,71.0282,289.085,-1.6781e-05,-5.55e-06,0.0,0 STARLINK-5108,1 53992U 22125AE  23197.12802214 -.00000555  00000-0 -16781-4 0  9996,2 53992  53.2164 237.6731 0001287  71.0282 289.0850 15.08836413 43466,6917.891,95.438,540.647,538.866,0.0
53992.0,STARLINK-5108,PAYLOAD,2023-07-17 09:16:40,15.08842357,0.0001121,53.2165,232.0215,83.2901,276.8218,1.407e-05,-6.4e-07,0.0,0 STARLINK-5108,1 53992U 22125AE  23198.38657805 -.00000064  00000-0  14070-4 0  9992,2 53992  53.2165 232.0215 0001121  83.2901 276.8218 15.08842357 43650,6917.873,95.437,540.514,538.963,0.0
53992.0,STARLINK-5108,PAYLOAD,2023-07-18 02:45:55,15.08832802,0.0001039,53.2166,228.751,82.0672,278.0438,8.8085e-05,1.114e-05,0.0,0 STARLINK-5108,1 53992U 22125AE  23199.11522321  .00001114  00000-0  88085-4 0  9991,2 53992  53.2166 228.7510 0001039  82.0672 278.0438 15.08832802 43765,6917.902,95.438,540.486,539.049,0.0
53992.0,STARLINK-5108,PAYLOAD,2023-07-19 10:33:38,15.08837963,0.000109,53.2167,222.8037,82.096,278.0156,2.9359e-05,1.79e-06,0.0,0 STARLINK-5108,1 53992U 22125AE  23200.44002580  .00000179  00000-0  29359-4 0  9999,2 53992  53.2167 222.8037 0001090  82.0960 278.0156 15.08837963 43964,6917.887,95.438,540.506,538.998,0.0
53992.0,STARLINK-5108,PAYLOAD,2023-07-21 00:42:53,15.08839945,0.0001095,53.2165,215.666,82.1764,277.9352,6.6278e-05,7.67e-06,0.0,0 STARLINK-5108,1 53992U 22125AE  23202.02978435  .00000767  00000-0  66278-4 0  9990,2 53992  53.2165 215.6660 0001095  82.1764 277.9352 15.08839945 44208,6917.881,95.438,540.503,538.988,0.0
53992.0,STARLINK-5108,PAYLOAD,2023-07-24 00:15:14,15.08837282,0.0001182,53.2167,202.2844,98.7091,261.4035,1.1031e-05,-1.12e-06,0.0,0 STARLINK-5108,1 53992U 22125AE  23205.01058600 -.00000112  00000-0  11031-4 0  9997,2 53992  53.2167 202.2844 0001182  98.7091 261.4035 15.08837282 44577,6917.889,95.438,540.571,538.936,0.0
53992.0,STARLINK-5108,PAYLOAD,2023-07-25 08:02:57,15.08836367,0.0001338,53.2175,196.3398,96.4546,263.6598,3.5646e-05,2.79e-06,0.0,0 STARLINK-5108,1 53992U 22125AE  23206.33538894  .00000279  00000-0  35646-4 0  9992,2 53992  53.2175 196.3398 0001338  96.4546 263.6598 15.08836367 44779,6917.891,95.438,540.682,538.831,0.0
53992.0,STARLINK-5108,PAYLOAD,2023-07-26 03:07:35,15.08835474,0.0001149,53.217,192.7695,96.3822,263.7301,5.5912e-05,6.02e-06,0.0,0 STARLINK-5108,1 53992U 22125AE  23207.13027072  .00000602  00000-0  55912-4 0  9990,2 53992  53.2170 192.7695 0001149  96.3822 263.7301 15.08835474 44894,6917.894,95.438,540.554,538.964,0.0
53992.0,STARLINK-5108,PAYLOAD,2023-07-26 04:42:58,15.08836729,0.0001164,53.2167,192.472,96.6696,263.4428,6.5677e-05,7.57e-06,0.0,0 STARLINK-5108,1 53992U 22125AE  23207.19650976  .00000757  00000-0  65677-4 0  9991,2 53992  53.2167 192.4720 0001164  96.6696 263.4428 15.08836729 44908,6917.89,95.438,540.561,538.95,0.0
53992.0,STARLINK-5108,PAYLOAD,2023-07-27 07:44:31,15.08841865,0.0001123,53.2167,187.4167,94.3,265.812,5.8789e-05,6.48e-06,0.0,0 STARLINK-5108,1 53992U 22125AE  23208.32258754  .00000648  00000-0  58789-4 0  9990,2 53992  53.2167 187.4167 0001123  94.3000 265.8120 15.08841865 45156,6917.875,95.437,540.517,538.963,0.0
53992.0,STARLINK-5108,PAYLOAD,2023-07-27 22:03:00,15.08834405,0.0001123,53.2166,184.7393,95.854,264.258,-2.4083e-06,-3.26e-06,0.0,0 STARLINK-5108,1 53992U 22125AE  23208.91875524 -.00000326  00000-0 -24083-5 0  9991,2 53992  53.2166 184.7393 0001123  95.8540 264.2580 15.08834405 45167,6917.897,95.438,540.539,538.986,0.0
53992.0,STARLINK-5108,PAYLOAD,2023-07-27 23:38:23,15.08834178,0.0001133,53.2167,184.4417,95.5861,264.526,-8.1915e-06,-4.18e-06,0.0,0 STARLINK-5108,1 53992U 22125AE  23208.98499579 -.00000418  00000-0 -81915-5 0  9999,2 53992  53.2167 184.4417 0001133  95.5861 264.5260 15.08834178 45251,6917.898,95.438,540.547,538.979,0.0
53992.0,STARLINK-5108,PAYLOAD,2023-07-28 07:35:19,15.08832357,0.0001118,53.2164,182.9549,93.8191,266.2929,-2.0793e-05,-6.19e-06,0.0,0 STARLINK-5108,1 53992U 22125AE  23209.31619856 -.00000619  00000-0 -20793-4 0  9998,2 53992  53.2164 182.9549 0001118  93.8191 266.2929 15.08832357 45222,6917.904,95.438,540.542,538.995,0.0
53992.0,STARLINK-5108,PAYLOAD,2023-07-29 02:39:55,15.08848427,0.0001032,53.2175,179.3876,87.4753,272.6357,0.00016501,2.34e-05,0.0,0 STARLINK-5108,1 53992U 22125AE  23210.11106064  .00002340  00000-0  16501-3 0  9992,2 53992  53.2175 179.3876 0001032  87.4753 272.6357 15.08848427 45428,6917.855,95.437,540.434,539.006,0.0
53992.0,STARLINK-5108,PAYLOAD,2023-07-29 15:23:00,15.08843966,0.0001167,53.2168,177.008,91.1754,268.9372,0.00011793,1.59e-05,0.0,0 STARLINK-5108,1 53992U 22125AE  23210.64098314  .00001590  00000-0  11793-3 0  9992,2 53992  53.2168 177.0080 0001167  91.1754 268.9372 15.08843966 45501,6917.868,95.437,540.541,538.926,0.0
53992.0,STARLINK-5108,PAYLOAD,2023-07-30 02:30:43,15.08832756,0.0001433,53.2163,174.9266,95.5813,264.5342,5.334e-05,5.61e-06,0.0,0 STARLINK-5108,1 53992U 22125AE  23211.10467445  .00000561  00000-0  53340-4 0  9991,2 53992  53.2163 174.9266 0001433  95.5813 264.5342 15.08832756 45579,6917.903,95.438,540.759,538.776,0.0
53992.0,STARLINK-5108,PAYLOAD,2023-07-31 02:21:30,15.08845462,0.0001469,53.2169,170.4661,98.7573,261.3586,-6.3614e-05,-1.3e-05,0.0,0 STARLINK-5108,1 53992U 22125AE  23212.09827133 -.00001300  00000-0 -63614-4 0  9993,2 53992  53.2169 170.4661 0001469  98.7573 261.3586 15.08845462 45722,6917.864,95.437,540.745,538.712,0.0
53992.0,STARLINK-5108,PAYLOAD,2023-08-01 02:12:18,15.08830138,0.000163,53.2173,166.0054,97.6132,262.5045,5.1642e-05,5.34e-06,0.0,0 STARLINK-5108,1 53992U 22125AE  23213.09188011  .00000534  00000-0  51642-4 0  9993,2 53992  53.2173 166.0054 0001630  97.6132 262.5045 15.08830138 45876,6917.911,95.438,540.903,538.648,0.0
53992.0,STARLINK-5108,PAYLOAD,2023-08-02 00:27:42,15.08838934,0.0001602,53.2174,161.8423,97.2802,262.8372,5.5591e-05,5.97e-06,0.0,0 STARLINK-5108,1 53992U 22125AE  23214.01923810  .00000597  00000-0  55591-4 0  9996,2 53992  53.2174 161.8423 0001602  97.2802 262.8372 15.08838934 46014,6917.884,95.438,540.857,538.64,0.0
53992.0,STARLINK-5108,PAYLOAD,2023-08-03 01:53:52,15.0884182,0.0001525,53.2175,157.085,85.3496,274.767,8.1563e-05,1.01e-05,0.0,0 STARLINK-5108,1 53992U 22125AE  23215.07907813  .00001010  00000-0  81563-4 0  9997,2 53992  53.2175 157.0850 0001525  85.3496 274.7670 15.08841820 46175,6917.875,95.437,540.795,538.685,0.0
53992.0,STARLINK-5108,PAYLOAD,2023-08-04 01:44:40,15.08834644,0.0001458,53.2174,152.6247,95.9355,264.1803,-3.9697e-05,-9.2e-06,0.0,0 STARLINK-5108,1 53992U 22125AE  23216.07268880 -.00000920  00000-0 -39697-4 0  9994,2 53992  53.2174 152.6247 0001458  95.9355 264.1803 15.08834644 46325,6917.897,95.438,540.77,538.753,0.0
53992.0,STARLINK-5108,PAYLOAD,2023-08-05 01:35:26,15.08850288,0.0001305,53.2165,148.1643,94.8533,265.2608,5.5976e-05,6.03e-06,0.0,0 STARLINK-5108,1 53992U 22125AE  23217.06627775  .00000603  00000-0  55976-4 0  9990,2 53992  53.2165 148.1643 0001305  94.8533 265.2608 15.08850288 46475,6917.849,95.437,540.617,538.811,0.0
